{"type": "FeatureCollection", "features": [ {"type": "Feature", "properties": {"norad_id": 66405, "name": "STARLINK-35683", "group": "last-30-days", "lat": -39.748623964153886, "lon": -89.21708036761731, "alt_km": 423.923904690193, "timestamp": "2025-12-03T04:52:28.419635+00:00", "meta": {"OBJECT_NAME": "STARLINK-35683", "OBJECT_ID": "2025-257AB", "EPOCH": "2025-12-02T20:00:03.000384", "MEAN_MOTION": 15.49293999, "ECCENTRICITY": 0.0001174, "INCLINATION": 53.1585, "RA_OF_ASC_NODE": 311.1264, "ARG_OF_PERICENTER": 103.6358, "MEAN_ANOMALY": 300.0128, "EPHEMERIS_TYPE": 0, "CLASSIFICATION_TYPE": "U", "NORAD_CAT_ID": 66405, "ELEMENT_SET_NO": 999, "REV_AT_EPOCH": 474, "BSTAR": -0.00021795, "MEAN_MOTION_DOT": -0.00012544, "MEAN_MOTION_DDOT": 0}, "tle": {"line1": "1 66405U 25257AB  25336.83336806 -.00012544  00000+0 -21795-3 0  9992", "line2": "2 66405  53.1585 311.1264 0001174 103.6358 300.0128 15.49293999  4746"}}, "geometry": {"type": "Point", "coordinates": [-89.21708036761731, -39.748623964153886]}}, {"type": "Feature", "properties": {"norad_id": 66406, "name": "STARLINK-34840", "group": "last-30-days", "lat": -36.04375692780616, "lon": -83.71930217036505, "alt_km": 423.8047914144281, "timestamp": "2025-12-03T04:52:28.419646+00:00", "meta": {"OBJECT_NAME": "STARLINK-34840", "OBJECT_ID": "2025-257AC", "EPOCH": "2025-12-02T16:00:03.000096", "MEAN_MOTION": 15.49322953, "ECCENTRICITY": 0.00013324, "INCLINATION": 53.1585, "RA_OF_ASC_NODE": 311.9125, "ARG_OF_PERICENTER": 90.0079, "MEAN_ANOMALY": 109.2718, "EPHEMERIS_TYPE": 0, "CLASSIFICATION_TYPE": "U", "NORAD_CAT_ID": 66406, "ELEMENT_SET_NO": 999, "REV_AT_EPOCH": 481, "BSTAR": -0.0013163628, "MEAN_MOTION_DOT": -0.00073016, "MEAN_MOTION_DDOT": 0}, "tle": {"line1": "1 66406U 25257AC  25336.66670139 -.00073016  00000+0 -13164-2 0  9995", "line2": "2 66406  53.1585 311.9125 0001332  90.0079 109.2718 15.49322953  4811"}}, "geometry": {"type": "Point", "coordinates": [-83.71930217036505, -36.04375692780616]}}, {"type": "Feature", "properties": {"norad_id": 66407, "name": "STARLINK-35686", "group": "last-30-days", "lat": -38.534287710452176, "lon": -87.30988625872257, "alt_km": 423.96467727183517, "timestamp": "2025-12-03T04:52:28.419658+00:00", "meta": {"OBJECT_NAME": "STARLINK-35686", "OBJECT_ID": "2025-257AD", "EPOCH": "2025-12-02T20:00:03.000384", "MEAN_MOTION": 15.49297123, "ECCENTRICITY": 0.0001395, "INCLINATION": 53.1584, "RA_OF_ASC_NODE": 311.1226, "ARG_OF_PERICENTER": 99.5079, "MEAN_ANOMALY": 306.0598, "EPHEMERIS_TYPE": 0, "CLASSIFICATION_TYPE": "U", "NORAD_CAT_ID": 66407, "ELEMENT_SET_NO": 999, "REV_AT_EPOCH": 490, "BSTAR": -0.00029317, "MEAN_MOTION_DOT": -0.00016711, "MEAN_MOTION_DDOT": 0}, "tle": {"line1": "1 66407U 25257AD  25336.83336806 -.00016711  00000+0 -29317-3 0  9992", "line2": "2 66407  53.1584 311.1226 0001395  99.5079 306.0598 15.49297123  4901"}}, "geometry": {"type": "Point", "coordinates": [-87.30988625872257, -38.534287710452176]}}, {"type": "Feature", "properties": {"norad_id": 66408, "name": "STARLINK-35679", "group": "last-30-days", "lat": -37.29163701997353, "lon": -85.46830149580103, "alt_km": 423.8320004760553, "timestamp": "2025-12-03T04:52:28.419669+00:00", "meta": {"OBJECT_NAME": "STARLINK-35679", "OBJECT_ID": "2025-257AE", "EPOCH": "2025-12-02T20:00:03.000384", "MEAN_MOTION": 15.49290615, "ECCENTRICITY": 0.0001354, "INCLINATION": 53.1584, "RA_OF_ASC_NODE": 311.1197, "ARG_OF_PERICENTER": 97.1751, "MEAN_ANOMALY": 310.311, "EPHEMERIS_TYPE": 0, "CLASSIFICATION_TYPE": "U", "NORAD_CAT_ID": 66408, "ELEMENT_SET_NO": 999, "REV_AT_EPOCH": 490, "BSTAR": -3.0802e-05, "MEAN_MOTION_DOT": -2.16e-05, "MEAN_MOTION_DDOT": 0}, "tle": {"line1": "1 66408U 25257AE  25336.83336806 -.00002160  00000+0 -30802-4 0  9998", "line2": "2 66408  53.1584 311.1197 0001354  97.1751 310.3110 15.49290615  4902"}}, "geometry": {"type": "Point", "coordinates": [-85.46830149580103, -37.29163701997353]}}, {"type": "Feature", "properties": {"norad_id": 66409, "name": "CHUTIAN-2 A", "group": "last-30-days", "lat": 3.606435412033104, "lon": 41.60695382927119, "alt_km": 737.0295039637012, "timestamp": "2025-12-03T04:52:28.419679+00:00", "meta": {"OBJECT_NAME": "CHUTIAN-2 A", "OBJECT_ID": "2025-256A", "EPOCH": "2025-12-02T20:34:35.562720", "MEAN_MOTION": 14.49915356, "ECCENTRICITY": 0.0013178, "INCLINATION": 98.2775, "RA_OF_ASC_NODE": 41.7931, "ARG_OF_PERICENTER": 207.8002, "MEAN_ANOMALY": 152.249, "EPHEMERIS_TYPE": 0, "CLASSIFICATION_TYPE": "U", "NORAD_CAT_ID": 66409, "ELEMENT_SET_NO": 999, "REV_AT_EPOCH": 344, "BSTAR": 3.394e-05, "MEAN_MOTION_DOT": 8.7e-07, "MEAN_MOTION_DDOT": 0}, "tle": {"line1": "1 66409U 25256A   25336.85735605  .00000087  00000+0  33940-4 0  9990", "line2": "2 66409  98.2775  41.7931 0013178 207.8002 152.2490 14.49915356  3440"}}, "geometry": {"type": "Point", "coordinates": [41.60695382927119, 3.606435412033104]}}, {"type": "Feature", "properties": {"norad_id": 66410, "name": "CHUTIAN-2 B", "group": "last-30-days", "lat": 62.257571320100574, "lon": 26.092047025101323, "alt_km": 724.220850629662, "timestamp": "2025-12-03T04:52:28.419690+00:00", "meta": {"OBJECT_NAME": "CHUTIAN-2 B", "OBJECT_ID": "2025-256B", "EPOCH": "2025-12-02T20:18:27.168192", "MEAN_MOTION": 14.51003399, "ECCENTRICITY": 0.0013266, "INCLINATION": 98.2801, "RA_OF_ASC_NODE": 41.8146, "ARG_OF_PERICENTER": 211.8897, "MEAN_ANOMALY": 148.1496, "EPHEMERIS_TYPE": 0, "CLASSIFICATION_TYPE": "U", "NORAD_CAT_ID": 66410, "ELEMENT_SET_NO": 999, "REV_AT_EPOCH": 344, "BSTAR": 0.00024093, "MEAN_MOTION_DOT": 9.1e-06, "MEAN_MOTION_DDOT": 0}, "tle": {"line1": "1 66410U 25256B   25336.84614778  .00000910  00000+0  24093-3 0  9991", "line2": "2 66410  98.2801  41.8146 0013266 211.8897 148.1496 14.51003399  3444"}}, "geometry": {"type": "Point", "coordinates": [26.092047025101323, 62.257571320100574]}}, {"type": "Feature", "properties": {"norad_id": 66411, "name": "ZK-1A R/B", "group": "last-30-days", "lat": 81.47430996913565, "lon": -33.34053404898645, "alt_km": 711.9749938612931, "timestamp": "2025-12-03T04:52:28.419702+00:00", "meta": {"OBJECT_NAME": "ZK-1A R/B", "OBJECT_ID": "2025-256C", "EPOCH": "2025-12-02T20:28:38.025696", "MEAN_MOTION": 15.0159784, "ECCENTRICITY": 0.0229688, "INCLINATION": 98.325, "RA_OF_ASC_NODE": 43.9162, "ARG_OF_PERICENTER": 278.0274, "MEAN_ANOMALY": 79.4945, "EPHEMERIS_TYPE": 0, "CLASSIFICATION_TYPE": "U", "NORAD_CAT_ID": 66411, "ELEMENT_SET_NO": 999, "REV_AT_EPOCH": 356, "BSTAR": 0.00074848, "MEAN_MOTION_DOT": 0.00017171, "MEAN_MOTION_DDOT": 0}, "tle": {"line1": "1 66411U 25256C   25336.85321789  .00017171  00000+0  74848-3 0  9990", "line2": "2 66411  98.3250  43.9162 0229688 278.0274  79.4945 15.01597840  3569"}}, "geometry": {"type": "Point", "coordinates": [-33.34053404898645, 81.47430996913565]}}, {"type": "Feature", "properties": {"norad_id": 66412, "name": "HULIANWANG DIGUI 13A", "group": "last-30-days", "lat": -27.308534020542943, "lon": 147.79796285622237, "alt_km": 819.8908484451713, "timestamp": "2025-12-03T04:52:28.419713+00:00", "meta": {"OBJECT_NAME": "HULIANWANG DIGUI 13A", "OBJECT_ID": "2025-258A", "EPOCH": "2025-12-02T16:03:56.020032", "MEAN_MOTION": 14.23490832, "ECCENTRICITY": 0.00139914, "INCLINATION": 50.0039, "RA_OF_ASC_NODE": 304.3564, "ARG_OF_PERICENTER": 322.3046, "MEAN_ANOMALY": 37.6886, "EPHEMERIS_TYPE": 0, "CLASSIFICATION_TYPE": "U", "NORAD_CAT_ID": 66412, "ELEMENT_SET_NO": 999, "REV_AT_EPOCH": 322, "BSTAR": 0.00010475171, "MEAN_MOTION_DOT": 8.1e-07, "MEAN_MOTION_DDOT": 0}, "tle": {"line1": "1 66412U 25258A   25336.66939838  .00000081  00000+0  10475-3 0  9990", "line2": "2 66412  50.0039 304.3564 0013991 322.3046  37.6886 14.23490832  3227"}}, "geometry": {"type": "Point", "coordinates": [147.79796285622237, -27.308534020542943]}}, {"type": "Feature", "properties": {"norad_id": 66413, "name": "HULIANWANG DIGUI 13B", "group": "last-30-days", "lat": 1.833359563737906, "lon": 120.63239136932926, "alt_km": 821.9304680518326, "timestamp": "2025-12-03T04:52:28.419723+00:00", "meta": {"OBJECT_NAME": "HULIANWANG DIGUI 13B", "OBJECT_ID": "2025-258B", "EPOCH": "2025-12-02T16:14:57.620256", "MEAN_MOTION": 14.23481813, "ECCENTRICITY": 0.0013317, "INCLINATION": 50.0008, "RA_OF_ASC_NODE": 304.3865, "ARG_OF_PERICENTER": 322.8429, "MEAN_ANOMALY": 37.1561, "EPHEMERIS_TYPE": 0, "CLASSIFICATION_TYPE": "U", "NORAD_CAT_ID": 66413, "ELEMENT_SET_NO": 999, "REV_AT_EPOCH": 322, "BSTAR": 8.6476739e-05, "MEAN_MOTION_DOT": 3.9e-07, "MEAN_MOTION_DDOT": 0}, "tle": {"line1": "1 66413U 25258B   25336.67705579  .00000039  00000+0  86477-4 0  9994", "line2": "2 66413  50.0008 304.3865 0013317 322.8429  37.1561 14.23481813  3224"}}, "geometry": {"type": "Point", "coordinates": [120.63239136932926, 1.833359563737906]}}, {"type": "Feature", "properties": {"norad_id": 66414, "name": "HULIANWANG DIGUI 13C", "group": "last-30-days", "lat": -10.46793344782933, "lon": 131.08023607907276, "alt_km": 821.4978502248259, "timestamp": "2025-12-03T04:52:28.419735+00:00", "meta": {"OBJECT_NAME": "HULIANWANG DIGUI 13C", "OBJECT_ID": "2025-258C", "EPOCH": "2025-12-02T14:29:20.766048", "MEAN_MOTION": 14.23507391, "ECCENTRICITY": 0.00135694, "INCLINATION": 50.0043, "RA_OF_ASC_NODE": 304.6799, "ARG_OF_PERICENTER": 321.021, "MEAN_ANOMALY": 38.9724, "EPHEMERIS_TYPE": 0, "CLASSIFICATION_TYPE": "U", "NORAD_CAT_ID": 66414, "ELEMENT_SET_NO": 999, "REV_AT_EPOCH": 321, "BSTAR": 0.00010649694, "MEAN_MOTION_DOT": 8.5e-07, "MEAN_MOTION_DDOT": 0}, "tle": {"line1": "1 66414U 25258C   25336.60371257  .00000085  00000+0  10650-3 0  9990", "line2": "2 66414  50.0043 304.6799 0013569 321.0210  38.9724 14.23507391  3210"}}, "geometry": {"type": "Point", "coordinates": [131.08023607907276, -10.46793344782933]}}]}